DMSP 5D-3 F16 (USA 172) 
1 28054U 03048A   25344.52501743  .00000218  00000+0  13786-3 0  9997
2 28054  99.0048   1.9646 0006574 327.8140 183.6939 14.14423074142819
METEOSAT-9 (MSG-2)      
1 28912U 05049B   25343.85989931  .00000124  00000+0  00000+0 0  9994
2 28912   8.9334  56.0037 0003774 190.0856 187.9557  1.00274858  5105
DMSP 5D-3 F17 (USA 191) 
1 29522U 06050A   25344.50773944  .00000277  00000+0  16566-3 0  9990
2 29522  98.7394 349.9433 0009313 231.8360 128.1975 14.14918041985734
FENGYUN 3A              
1 32958U 08026A   25344.42998306  .00000209  00000+0  11972-3 0  9995
2 32958  98.6695 284.0055 0007998 317.7202  42.3357 14.19513394908620
GOES 14                 
1 35491U 09033A   25344.43146552 -.00000064  00000+0  00000+0 0  9994
2 35491   1.1938  85.4365 0003975 155.1385 245.8661  1.00273360  4704
DMSP 5D-3 F18 (USA 210) 
1 35951U 09057A   25344.46287659  .00000421  00000+0  24142-3 0  9991
2 35951  98.8833 320.8751 0012087  68.7045 291.5418 14.14767139832903
EWS-G2 (GOES 15)        
1 36411U 10008A   25344.08254147  .00000041  00000+0  00000+0 0  9996
2 36411   0.8075  86.0538 0005892 173.5819 270.5727  1.00269219 57748
COMS 1                  
1 36744U 10032A   25344.42629094 -.00000341  00000+0  00000+0 0  9991
2 36744   4.3360  78.0218 0001104 206.2319  76.7867  1.00270682 49197
FENGYUN 3B              
1 37214U 10059A   25344.57118348  .00000421  00000+0  24147-3 0  9994
2 37214  98.9904  24.5329 0022182   3.9155 152.0204 14.14789255780758
SUOMI NPP               
1 37849U 11061A   25344.43808227  .00000194  00000+0  11323-3 0  9998
2 37849  98.7771 281.8004 0002170 124.2216 235.9166 14.19513170731660
METEOSAT-10 (MSG-3)     
1 38552U 12035B   25343.85097259 -.00000004  00000+0  00000+0 0  9999
2 38552   4.2224  61.7294 0000851 241.8220  81.7823  1.00274082 48950
METOP-B                 
1 38771U 12049A   25344.39964362  .00000216  00000+0  11904-3 0  9998
2 38771  98.6803  34.3981 0002814 149.1513 210.9830 14.21407015686445
INSAT-3D                
1 39216U 13038B   25344.22947691 -.00000335  00000+0  00000+0 0  9994
2 39216   1.4387  85.0161 0001606 162.7742  43.5747  1.00270959 45180
FENGYUN 3C              
1 39260U 13052A   25344.48304560  .00000202  00000+0  12391-3 0  9991
2 39260  98.4761 322.2726 0014158 202.7278 157.3272 14.15695217631860
METEOR-M 2              
1 40069U 14037A   25344.49572814  .00000503  00000+0  24954-3 0  9996
2 40069  98.4903 322.1659 0004871 217.4198 142.6642 14.21385695592515
HIMAWARI-8              
1 40267U 14060A   25344.36780882 -.00000272  00000+0  00000+0 0  9990
2 40267   0.0340 206.5941 0001237  92.8974  52.9234  1.00270438 40865
FENGYUN 2G              
1 40367U 14090A   25344.58317998 -.00000297  00000+0  00000+0 0  9999
2 40367   5.1630  75.1181 0003114 194.5305 119.4364  1.00264710 40100
METEOSAT-11 (MSG-4)     
1 40732U 15034A   25343.94141880  .00000064  00000+0  00000+0 0  9999
2 40732   2.7284  72.0094 0000964 122.8009 232.3625  1.00266624  5313
ELEKTRO-L 2             
1 41105U 15074A   25343.06331611 -.00000116  00000+0  00000+0 0  9993
2 41105   6.2161  72.8685 0003836 198.9202 174.5582  1.00271905 36608
INSAT-3DR               
1 41752U 16054A   25344.36225227 -.00000073  00000+0  00000+0 0  9991
2 41752   0.0862  86.5692 0014472 183.8090  13.3753  1.00270503 33927
HIMAWARI-9              
1 41836U 16064A   25344.36780882 -.00000271  00000+0  00000+0 0  9998
2 41836   0.0264  79.9430 0001292 185.1560  87.4277  1.00268832 33313
GOES 16                 
1 41866U 16071A   25344.43270854 -.00000087  00000+0  00000+0 0  9995
2 41866   0.0648 104.3227 0003344 157.3495 228.8386  1.00271273 33211
FENGYUN 4A              
1 41882U 16077A   25343.87541273 -.00000354  00000+0  00000+0 0  9999
2 41882   1.8422  82.4220 0004889 142.7758 292.6612  1.00275053 33033
CYGFM05                 
1 41884U 16078A   25344.48154723  .00027340  00000+0  51452-3 0  9994
2 41884  34.9599  61.8808 0009794 162.5762 197.5297 15.47503338499411
CYGFM04                 
1 41885U 16078B   25344.50708284  .00030547  00000+0  52239-3 0  9992
2 41885  34.9355  36.5550 0009183 190.5613 169.4917 15.50209953499599
CYGFM02                 
1 41886U 16078C   25344.44239240  .00032552  00000+0  52963-3 0  9999
2 41886  34.9444  35.3352 0010869 189.4667 170.5851 15.51574732499710
CYGFM01                 
1 41887U 16078D   25344.47447544  .00027833  00000+0  51341-3 0  9996
2 41887  34.9430  64.2923 0009391 154.4149 205.7039 15.48077649499356
CYGFM08                 
1 41888U 16078E   25344.46756455  .00029867  00000+0  52757-3 0  9991
2 41888  34.9463  47.3562 0011255 178.1643 181.9121 15.49276965499583
CYGFM07                 
1 41890U 16078G   25344.47060828  .00030212  00000+0  52319-3 0  9997
2 41890  34.9482  36.3296 0009645 196.0110 164.0308 15.49854038499602
CYGFM03                 
1 41891U 16078H   25344.50004101  .00030031  00000+0  52200-3 0  9992
2 41891  34.9435  38.0538 0008964 183.3177 176.7487 15.49757356499584
FENGYUN 3D              
1 43010U 17072A   25344.48299641 -.00000014  00000+0  15338-4 0  9995
2 43010  98.9893 310.7590 0000795 188.8669 171.2492 14.19681710418218
NOAA 20 (JPSS-1)        
1 43013U 17073A   25344.45291397  .00000172  00000+0  10248-3 0  9994
2 43013  98.7596 280.7747 0002149  90.4862 269.6560 14.19524754417690
GOES 17                 
1 43226U 18022A   25344.23030918 -.00000179  00000+0  00000+0 0  9990
2 43226   0.4537  89.1429 0003374 186.9948 156.4873  1.00271633 28527
FENGYUN 2H              
1 43491U 18050A   25344.36225228 -.00000126  00000+0  00000+0 0  9991
2 43491   2.5447  81.3483 0002934 165.0565  42.7050  1.00271007 27542
METOP-C                 
1 43689U 18087A   25344.42848900  .00000218  00000+0  11941-3 0  9996
2 43689  98.6933  42.2335 0001439  46.6144 313.5153 14.21510464368018
GEO-KOMPSAT-2A          
1 43823U 18100A   25343.97891795 -.00000341  00000+0  00000+0 0  9999
2 43823   0.0417 144.8250 0000116  34.8694  19.9414  1.00269688 25735
METEOR-M2 2             
1 44387U 19038A   25344.48884042  .00000441  00000+0  21072-3 0  9996
2 44387  98.8972 324.1896 0001150 151.6949 208.4292 14.24290569334432
ARKTIKA-M 1             
1 47719U 21016A   25343.58569282 -.00000061  00000+0  00000+0 0  9996
2 47719  63.1769  84.4506 7202538 269.1116  15.6235  2.00631311 34985
FENGYUN 3E              
1 49008U 21062A   25344.48981372  .00000349  00000+0  18535-3 0  9992
2 49008  98.7475 345.0373 0000595 286.3832  73.7279 14.19880315229805
GOES 18                 
1 51850U 22021A   25344.43072882  .00000101  00000+0  00000+0 0  9998
2 51850   0.0393 171.4531 0000706 133.1445 152.8693  1.00271533  4709
NOAA 21 (JPSS-2)        
1 54234U 22150A   25344.48800084  .00000188  00000+0  11014-3 0  9994
2 54234  98.7459 280.8244 0002301  42.3573 317.7780 14.19523297159775
METEOSAT-12 (MTG-I1)    
1 54743U 22170C   25344.27058867 -.00000004  00000+0  00000+0 0  9999
2 54743   0.6844  23.1553 0001835 238.1267 275.1497  1.00267149 11087
TIANMU-1 03             
1 55973U 23039A   25344.48373706  .00022828  00000+0  55797-3 0  9999
2 55973  97.5112 147.0725 0004473  67.2171 292.9547 15.40816842151716
TIANMU-1 04             
1 55974U 23039B   25344.52860314  .00022331  00000+0  53981-3 0  9993
2 55974  97.5043 146.3105 0005150  62.8679 297.3092 15.41154329151722
TIANMU-1 05             
1 55975U 23039C   25344.52230583  .00021524  00000+0  52701-3 0  9995
2 55975  97.5089 146.7964 0004368  84.1764 275.9979 15.40777145151702
TIANMU-1 06             
1 55976U 23039D   25344.53085269  .00021935  00000+0  52943-3 0  9990
2 55976  97.5100 147.2683 0004710  79.8382 280.3395 15.41206482151725
FENGYUN 3G              
1 56232U 23055A   25344.21565948  .00042561  00000+0  66182-3 0  9994
2 56232  49.9931 240.4781 0009290 136.4608 223.7095 15.53405628150631
METEOR-M2 3             
1 57166U 23091A   25344.51334383  .00000045  00000+0  38732-4 0  9993
2 57166  98.6381  38.0915 0004035  15.0793 345.0505 14.24025728127664
TIANMU-1 07             
1 57399U 23101A   25344.49975965  .00011415  00000+0  41993-3 0  9992
2 57399  97.2877  34.3986 0005610  87.2315 272.9567 15.28017883132812
TIANMU-1 08             
1 57400U 23101B   25344.40119317  .00010641  00000+0  39173-3 0  9994
2 57400  97.2866  34.1007 0007571  90.3396 269.8711 15.27999705132791
TIANMU-1 09             
1 57401U 23101C   25344.51899328  .00010921  00000+0  40165-3 0  9998
2 57401  97.2822  33.7305 0006816  89.8615 270.3405 15.28029577132810
TIANMU-1 10             
1 57402U 23101D   25344.42222359  .00011674  00000+0  42912-3 0  9991
2 57402  97.2903  34.4832 0008561  90.0989 270.1231 15.28018601132799
FENGYUN 3F              
1 57490U 23111A   25344.47692097  .00000150  00000+0  91284-4 0  9998
2 57490  98.7087  52.8068 0000652  97.4586 262.6664 14.19892711122085
ARKTIKA-M 2             
1 58584U 23198A   25342.84043955  .00000166  00000+0  00000+0 0  9998
2 58584  63.2247 175.3152 6864699 268.1185  18.8267  2.00604760 14506
TIANMU-1 11             
1 58645U 23205A   25344.51553748  .00008991  00000+0  36755-3 0  9991
2 58645  97.3610   4.1776 0008086 319.6142  40.4494 15.24555463108755
TIANMU-1 12             
1 58646U 23205B   25344.47667289  .00009977  00000+0  40912-3 0  9998
2 58646  97.3598   3.9457 0005996 301.5483  58.5168 15.24435837108737
TIANMU-1 13             
1 58647U 23205C   25344.51028359  .00009162  00000+0  37547-3 0  9999
2 58647  97.3626   4.1786 0006037 277.5390  82.5162 15.24479406108735
TIANMU-1 14             
1 58648U 23205D   25344.49365823  .00009475  00000+0  38833-3 0  9993
2 58648  97.3558   3.5132 0006888 282.7071  77.3397 15.24462774108738
TIANMU-1 19             
1 58660U 23208A   25344.58317632  .00014155  00000+0  52376-3 0  9994
2 58660  97.4387  95.6245 0004040 262.8858  97.1922 15.27785343108490
TIANMU-1 20             
1 58661U 23208B   25344.57135345  .00013801  00000+0  49246-3 0  9992
2 58661  97.4325  96.0582 0006290 275.1821  84.8700 15.28976136108566
TIANMU-1 21             
1 58662U 23208C   25344.57404353  .00016113  00000+0  53187-3 0  9999
2 58662  97.4373  97.9596 0005867 269.2824  90.7745 15.31475186108660
TIANMU-1 22             
1 58663U 23208D   25344.58261682  .00013354  00000+0  49800-3 0  9998
2 58663  97.4381  95.6840 0002731 298.5241  61.5723 15.27544714108506
TIANMU-1 15             
1 58700U 24004A   25344.55489394  .00009941  00000+0  40538-3 0  9990
2 58700  97.4631 166.0326 0005280 307.9614  52.1145 15.24633017107010
TIANMU-1 16             
1 58701U 24004B   25344.53962164  .00010176  00000+0  41799-3 0  9992
2 58701  97.4571 165.4085 0004584 306.1456  53.9356 15.24384350107016
TIANMU-1 17             
1 58702U 24004C   25344.52428138  .00010486  00000+0  43007-3 0  9998
2 58702  97.4605 165.8021 0003813 310.1559  49.9344 15.24428931107007
TIANMU-1 18             
1 58703U 24004D   25344.50757751  .00010111  00000+0  41496-3 0  9998
2 58703  97.4622 165.9803 0003148 311.1126  48.9839 15.24417881107008
INSAT-3DS               
1 58990U 24033A   25344.35669713 -.00000152  00000+0  00000+0 0  9998
2 58990   0.0331 122.5439 0001600 143.2161  24.0578  1.00269603 45171
METEOR-M2 4             
1 59051U 24039A   25344.52451693  .00000089  00000+0  59762-4 0  9990
2 59051  98.6763 301.4682 0007162   4.8784 355.2462 14.22400737 92448
GOES 19                 
1 60133U 24119A   25344.32713536 -.00000245  00000+0  00000+0 0  9998
2 60133   0.0012 239.7895 0001350  67.9696 174.1323  1.00271256  5070
FENGYUN 3H              
1 65815U 25219A   25344.47386049  .00000189  00000+0  10926-3 0  9991
2 65815  98.6582 284.1135 0000601  87.3864 272.7381 14.19903758 10606
